LEMUR-2-JOHN-TREIRES    
1 48925U 21059AY  23295.37137790  .00169099  00000+0  13686-2 0  9992
2 48925  97.6062  83.9114 0002767 201.9052 158.2091 15.70276231129403
KSF1-B                  
1 48926U 21059AZ  23295.51423546  .00076183  00000+0  12591-2 0  9991
2 48926  97.6018  81.6861 0010802 166.1972 193.9577 15.51907504129274
LEMUR-2-AC-CUBED        
1 48927U 21059BA  23295.38568849  .00063752  00000+0  11026-2 0  9993
2 48927  97.6066  80.3266 0007119 165.9613 194.1838 15.50715974129190
PAINANI-2               
1 48928U 21059BB  23295.33919969  .00020905  00000+0  70485-3 0  9990
2 48928  97.6175  74.7559 0010691 180.7701 179.3525 15.30699097128783
LEMUR-2-MERIMA          
1 48929U 21059BC  23295.37007965  .00078083  00000+0  10941-2 0  9999
2 48929  97.5890  81.2000 0004996 164.3925 195.7484 15.56503590129291
KSF1-A                  
1 48930U 21059BD  23295.51287494  .00043380  00000+0  73289-3 0  9991
2 48930  97.5993  81.1642 0006699 169.1058 191.0340 15.51473219129288
HAWK-3B                 
1 48931U 21059BE  23295.62405024  .00008462  00000+0  36395-3 0  9994
2 48931  97.6012  70.6777 0013310 192.5298 167.5609 15.22818920128665
SHANNON                 
1 48938U 21059BM  23295.37102953  .00015709  00000+0  57560-3 0  9997
2 48938  97.6170  73.8639 0012481 187.7153 172.3895 15.28024222128743
SHERPA-LTE1             
1 48941U 21059BQ  23295.37847696  .00032781  00000+0  48838-3 0  9998
2 48941  97.6062  91.7747 0001824 154.9700 205.1642 15.55047871129920
KSF1-C                  
1 48942U 21059BR  23295.54787844  .00066983  00000+0  12079-2 0  9994
2 48942  97.6096  80.6340 0006768 181.1162 179.0074 15.49517477129183
QMR-KWT                 
1 48943U 21059BS  23295.35383658  .00026202  00000+0  82537-3 0  9996
2 48943  97.6119  74.4992 0005654 184.5878 175.5313 15.32880196128806
AYAN-21                 
1 48944U 21059BT  23295.34651270  .00024331  00000+0  75324-3 0  9991
2 48944  97.6099  75.8042 0010508 171.6918 188.4499 15.33410829128880
HAWK-3C                 
1 48948U 21059BX  23295.36093876  .00008815  00000+0  37889-3 0  9992
2 48948  97.6278  73.1492 0014097 197.8031 162.2713 15.22821164128623
KSF1-D                  
1 48950U 21059BZ  23295.58496154  .00186585  00000+0  15910-2 0  9996
2 48950  97.5945  84.4764 0005763 202.0823 158.0191 15.68940021129472
DEMO8 (TENZING)         
1 48951U 21059CA  23295.63321235  .00007680  00000+0  34609-3 0  9995
2 48951  97.6221  71.7886 0014169 194.4501 165.6331 15.21247179128610
ASTROCAST-0204          
1 48952U 21059CB  23295.37475704  .00012407  00000+0  49681-3 0  9997
2 48952  97.6200  73.2636 0013033 183.1063 177.0095 15.25124368128695
ARTHUR-1                
1 48953U 21059CC  23295.63557207  .00010847  00000+0  43467-3 0  9998
2 48953  97.6157  73.6152 0011899 184.9617 175.1505 15.25149288128767
