[{"OBJECT_NAME":"LEMUR-2-JOHN-TREIRES","OBJECT_ID":"2021-059AY","EPOCH":"2023-10-22T08:54:47.050560","MEAN_MOTION":15.70276231,"ECCENTRICITY":0.0002767,"INCLINATION":97.6062,"RA_OF_ASC_NODE":83.9114,"ARG_OF_PERICENTER":201.9052,"MEAN_ANOMALY":158.2091,"EPHEMERIS_TYPE":0,"CLASSIFICATION_TYPE":"U","NORAD_CAT_ID":48925,"ELEMENT_SET_NO":999,"REV_AT_EPOCH":12940,"BSTAR":0.0013686,"MEAN_MOTION_DOT":0.00169099,"MEAN_MOTION_DDOT":0},{"OBJECT_NAME":"KSF1-B","OBJECT_ID":"2021-059AZ","EPOCH":"2023-10-22T12:20:29.943744","MEAN_MOTION":15.51907504,"ECCENTRICITY":0.0010802,"INCLINATION":97.6018,"RA_OF_ASC_NODE":81.6861,"ARG_OF_PERICENTER":166.1972,"MEAN_ANOMALY":193.9577,"EPHEMERIS_TYPE":0,"CLASSIFICATION_TYPE":"U","NORAD_CAT_ID":48926,"ELEMENT_SET_NO":999,"REV_AT_EPOCH":12927,"BSTAR":0.0012591,"MEAN_MOTION_DOT":0.00076183,"MEAN_MOTION_DDOT":0},{"OBJECT_NAME":"LEMUR-2-AC-CUBED","OBJECT_ID":"2021-059BA","EPOCH":"2023-10-22T09:15:23.485536","MEAN_MOTION":15.50715974,"ECCENTRICITY":0.0007119,"INCLINATION":97.6066,"RA_OF_ASC_NODE":80.3266,"ARG_OF_PERICENTER":165.9613,"MEAN_ANOMALY":194.1838,"EPHEMERIS_TYPE":0,"CLASSIFICATION_TYPE":"U","NORAD_CAT_ID":48927,"ELEMENT_SET_NO":999,"REV_AT_EPOCH":12919,"BSTAR":0.0011026,"MEAN_MOTION_DOT":0.00063752,"MEAN_MOTION_DDOT":0},{"OBJECT_NAME":"PAINANI-2","OBJECT_ID":"2021-059BB","EPOCH":"2023-10-22T08:08:26.853216","MEAN_MOTION":15.30699097,"ECCENTRICITY":0.0010691,"INCLINATION":97.6175,"RA_OF_ASC_NODE":74.7559,"ARG_OF_PERICENTER":180.7701,"MEAN_ANOMALY":179.3525,"EPHEMERIS_TYPE":0,"CLASSIFICATION_TYPE":"U","NORAD_CAT_ID":48928,"ELEMENT_SET_NO":999,"REV_AT_EPOCH":12878,"BSTAR":0.00070485,"MEAN_MOTION_DOT":0.00020905,"MEAN_MOTION_DDOT":0},{"OBJECT_NAME":"LEMUR-2-MERIMA","OBJECT_ID":"2021-059BC","EPOCH":"2023-10-22T08:52:54.881760","MEAN_MOTION":15.5650359,"ECCENTRICITY":0.0004996,"INCLINATION":97.589,"RA_OF_ASC_NODE":81.2,"ARG_OF_PERICENTER":164.3925,"MEAN_ANOMALY":195.7484,"EPHEMERIS_TYPE":0,"CLASSIFICATION_TYPE":"U","NORAD_CAT_ID":48929,"ELEMENT_SET_NO":999,"REV_AT_EPOCH":12929,"BSTAR":0.0010941,"MEAN_MOTION_DOT":0.00078083,"MEAN_MOTION_DDOT":0},{"OBJECT_NAME":"KSF1-A","OBJECT_ID":"2021-059BD","EPOCH":"2023-10-22T12:18:32.394816","MEAN_MOTION":15.51473219,"ECCENTRICITY":0.0006699,"INCLINATION":97.5993,"RA_OF_ASC_NODE":81.1642,"ARG_OF_PERICENTER":169.1058,"MEAN_ANOMALY":191.034,"EPHEMERIS_TYPE":0,"CLASSIFICATION_TYPE":"U","NORAD_CAT_ID":48930,"ELEMENT_SET_NO":999,"REV_AT_EPOCH":12928,"BSTAR":0.00073289,"MEAN_MOTION_DOT":0.0004338,"MEAN_MOTION_DDOT":0},{"OBJECT_NAME":"HAWK-3B","OBJECT_ID":"2021-059BE","EPOCH":"2023-10-22T14:58:37.940736","MEAN_MOTION":15.2281892,"ECCENTRICITY":0.001331,"INCLINATION":97.6012,"RA_OF_ASC_NODE":70.6777,"ARG_OF_PERICENTER":192.5298,"MEAN_ANOMALY":167.5609,"EPHEMERIS_TYPE":0,"CLASSIFICATION_TYPE":"U","NORAD_CAT_ID":48931,"ELEMENT_SET_NO":999,"REV_AT_EPOCH":12866,"BSTAR":0.00036395,"MEAN_MOTION_DOT":8.462e-5,"MEAN_MOTION_DDOT":0},{"OBJECT_NAME":"SHANNON","OBJECT_ID":"2021-059BM","EPOCH":"2023-10-22T08:54:16.951392","MEAN_MOTION":15.28024222,"ECCENTRICITY":0.0012481,"INCLINATION":97.617,"RA_OF_ASC_NODE":73.8639,"ARG_OF_PERICENTER":187.7153,"MEAN_ANOMALY":172.3895,"EPHEMERIS_TYPE":0,"CLASSIFICATION_TYPE":"U","NORAD_CAT_ID":48938,"ELEMENT_SET_NO":999,"REV_AT_EPOCH":12874,"BSTAR":0.0005756,"MEAN_MOTION_DOT":0.00015709,"MEAN_MOTION_DDOT":0},{"OBJECT_NAME":"SHERPA-LTE1","OBJECT_ID":"2021-059BQ","EPOCH":"2023-10-22T09:05:00.409344","MEAN_MOTION":15.55047871,"ECCENTRICITY":0.0001824,"INCLINATION":97.6062,"RA_OF_ASC_NODE":91.7747,"ARG_OF_PERICENTER":154.97,"MEAN_ANOMALY":205.1642,"EPHEMERIS_TYPE":0,"CLASSIFICATION_TYPE":"U","NORAD_CAT_ID":48941,"ELEMENT_SET_NO":999,"REV_AT_EPOCH":12992,"BSTAR":0.00048838,"MEAN_MOTION_DOT":0.00032781,"MEAN_MOTION_DDOT":0},{"OBJECT_NAME":"KSF1-C","OBJECT_ID":"2021-059BR","EPOCH":"2023-10-22T13:08:56.697216","MEAN_MOTION":15.49517477,"ECCENTRICITY":0.0006768,"INCLINATION":97.6096,"RA_OF_ASC_NODE":80.634,"ARG_OF_PERICENTER":181.1162,"MEAN_ANOMALY":179.0074,"EPHEMERIS_TYPE":0,"CLASSIFICATION_TYPE":"U","NORAD_CAT_ID":48942,"ELEMENT_SET_NO":999,"REV_AT_EPOCH":12918,"BSTAR":0.0012079,"MEAN_MOTION_DOT":0.00066983,"MEAN_MOTION_DDOT":0},{"OBJECT_NAME":"QMR-KWT","OBJECT_ID":"2021-059BS","EPOCH":"2023-10-22T08:29:31.480512","MEAN_MOTION":15.32880196,"ECCENTRICITY":0.0005654,"INCLINATION":97.6119,"RA_OF_ASC_NODE":74.4992,"ARG_OF_PERICENTER":184.5878,"MEAN_ANOMALY":175.5313,"EPHEMERIS_TYPE":0,"CLASSIFICATION_TYPE":"U","NORAD_CAT_ID":48943,"ELEMENT_SET_NO":999,"REV_AT_EPOCH":12880,"BSTAR":0.00082537,"MEAN_MOTION_DOT":0.00026202,"MEAN_MOTION_DDOT":0},{"OBJECT_NAME":"AYAN-21","OBJECT_ID":"2021-059BT","EPOCH":"2023-10-22T08:18:58.697280","MEAN_MOTION":15.33410829,"ECCENTRICITY":0.0010508,"INCLINATION":97.6099,"RA_OF_ASC_NODE":75.8042,"ARG_OF_PERICENTER":171.6918,"MEAN_ANOMALY":188.4499,"EPHEMERIS_TYPE":0,"CLASSIFICATION_TYPE":"U","NORAD_CAT_ID":48944,"ELEMENT_SET_NO":999,"REV_AT_EPOCH":12888,"BSTAR":0.00075324,"MEAN_MOTION_DOT":0.00024331,"MEAN_MOTION_DDOT":0},{"OBJECT_NAME":"HAWK-3C","OBJECT_ID":"2021-059BX","EPOCH":"2023-10-22T08:39:45.108864","MEAN_MOTION":15.22821164,"ECCENTRICITY":0.0014097,"INCLINATION":97.6278,"RA_OF_ASC_NODE":73.1492,"ARG_OF_PERICENTER":197.8031,"MEAN_ANOMALY":162.2713,"EPHEMERIS_TYPE":0,"CLASSIFICATION_TYPE":"U","NORAD_CAT_ID":48948,"ELEMENT_SET_NO":999,"REV_AT_EPOCH":12862,"BSTAR":0.00037889,"MEAN_MOTION_DOT":8.815e-5,"MEAN_MOTION_DDOT":0},{"OBJECT_NAME":"KSF1-D","OBJECT_ID":"2021-059BZ","EPOCH":"2023-10-22T14:02:20.677056","MEAN_MOTION":15.68940021,"ECCENTRICITY":0.0005763,"INCLINATION":97.5945,"RA_OF_ASC_NODE":84.4764,"ARG_OF_PERICENTER":202.0823,"MEAN_ANOMALY":158.0191,"EPHEMERIS_TYPE":0,"CLASSIFICATION_TYPE":"U","NORAD_CAT_ID":48950,"ELEMENT_SET_NO":999,"REV_AT_EPOCH":12947,"BSTAR":0.001591,"MEAN_MOTION_DOT":0.00186585,"MEAN_MOTION_DDOT":0},{"OBJECT_NAME":"DEMO8 (TENZING)","OBJECT_ID":"2021-059CA","EPOCH":"2023-10-22T15:11:49.547040","MEAN_MOTION":15.21247179,"ECCENTRICITY":0.0014169,"INCLINATION":97.6221,"RA_OF_ASC_NODE":71.7886,"ARG_OF_PERICENTER":194.4501,"MEAN_ANOMALY":165.6331,"EPHEMERIS_TYPE":0,"CLASSIFICATION_TYPE":"U","NORAD_CAT_ID":48951,"ELEMENT_SET_NO":999,"REV_AT_EPOCH":12861,"BSTAR":0.00034609,"MEAN_MOTION_DOT":7.68e-5,"MEAN_MOTION_DDOT":0},{"OBJECT_NAME":"ASTROCAST-0204","OBJECT_ID":"2021-059CB","EPOCH":"2023-10-22T08:59:39.008256","MEAN_MOTION":15.25124368,"ECCENTRICITY":0.0013033,"INCLINATION":97.62,"RA_OF_ASC_NODE":73.2636,"ARG_OF_PERICENTER":183.1063,"MEAN_ANOMALY":177.0095,"EPHEMERIS_TYPE":0,"CLASSIFICATION_TYPE":"U","NORAD_CAT_ID":48952,"ELEMENT_SET_NO":999,"REV_AT_EPOCH":12869,"BSTAR":0.00049681,"MEAN_MOTION_DOT":0.00012407,"MEAN_MOTION_DDOT":0},{"OBJECT_NAME":"ARTHUR-1","OBJECT_ID":"2021-059CC","EPOCH":"2023-10-22T15:15:13.426848","MEAN_MOTION":15.25149288,"ECCENTRICITY":0.0011899,"INCLINATION":97.6157,"RA_OF_ASC_NODE":73.6152,"ARG_OF_PERICENTER":184.9617,"MEAN_ANOMALY":175.1505,"EPHEMERIS_TYPE":0,"CLASSIFICATION_TYPE":"U","NORAD_CAT_ID":48953,"ELEMENT_SET_NO":999,"REV_AT_EPOCH":12876,"BSTAR":0.00043467,"MEAN_MOTION_DOT":0.00010847,"MEAN_MOTION_DDOT":0}]
